stk.v.12.0

# WrittenBy    Horizons_to_STK_converter

BEGIN Ephemeris

    NumberOfEphemerisPoints		 8713

    ScenarioEpoch		 1 Jan 2031 00:00:00.000000

# Epoch in JDate format: 2462867.50000000000000
# Epoch in YYDDD format:   31001.00000000000000

    InterpolationMethod		 Lagrange

    InterpolationSamplesM1		 7

    DistanceUnit        Kilometers

    CentralBody		 Sun

    CoordinateSystem		 ICRF

# Time of first point: 1 Jan 2031 00:00:00.000000 UTCG = 2462867.50000000000000 JDate = 31001.00000000000000 YYDDD

    EphemerisTimePosVel

9.3383999999731779e+06  1.682624745835675E+07  9.786608359865701E+07  3.034984766672703E+07  -1.785535382649322E+01  -8.896794104206720E+00  -6.365812374507469E+00
9.3420000000000000e+06  1.676199218387076E+07  9.783402236812720E+07  3.032692256280033E+07  -1.784201643475393E+01  -8.914997985609116E+00  -6.370354635524166E+00
9.3456000000268221e+06  1.669778497207662E+07  9.780189563226072E+07  3.030398112659668E+07  -1.782865233470392E+01  -8.933185950979478E+00  -6.374885859057592E+00
9.3491999999731779e+06  1.663362591908553E+07  9.776970344844055E+07  3.028102339788484E+07  -1.781526154754190E+01  -8.951357950056607E+00  -6.379406024851388E+00
9.3528000000000000e+06  1.656951512093300E+07  9.773744587423854E+07  3.025804941651047E+07  -1.780184409464599E+01  -8.969513932502103E+00  -6.383915112644020E+00
9.3564000000268221e+06  1.650545267357720E+07  9.770512296740787E+07  3.023505922239216E+07  -1.778839999757284E+01  -8.987653847901964E+00  -6.388413102169357E+00
9.3599999999731779e+06  1.644143867289752E+07  9.767273478587554E+07  3.021205285551754E+07  -1.777492927805683E+01  -9.005777645768262E+00  -6.392899973157270E+00
9.3636000000000000e+06  1.637747321469563E+07  9.764028138775830E+07  3.018903035595113E+07  -1.776143195801555E+01  -9.023885275539076E+00  -6.397375705334131E+00
9.3672000000268221e+06  1.631355639469403E+07  9.760776283135502E+07  3.016599176383048E+07  -1.774790805954886E+01  -9.041976686580181E+00  -6.401840278423396E+00
9.3707999999731779e+06  1.624968830853435E+07  9.757517917513913E+07  3.014293711936216E+07  -1.773435760493810E+01  -9.060051828186801E+00  -6.406293672146214E+00
9.3744000000000000e+06  1.618586905177867E+07  9.754253047777458E+07  3.011986646282972E+07  -1.772078061665146E+01  -9.078110649583497E+00  -6.410735866221943E+00
9.3780000000268221e+06  1.612209871990781E+07  9.750981679810825E+07  3.009677983458972E+07  -1.770717711734308E+01  -9.096153099926031E+00  -6.415166840368769E+00
9.3815999999731779e+06  1.605837740831974E+07  9.747703819516233E+07  3.007367727506775E+07  -1.769354712985211E+01  -9.114179128303025E+00  -6.419586574304294E+00
9.3852000000000000e+06  1.599470521233086E+07  9.744419472815025E+07  3.005055882476643E+07  -1.767989067720812E+01  -9.132188683736040E+00  -6.423995047746093E+00
9.3888000000268221e+06  1.593108222717427E+07  9.741128645646907E+07  3.002742452426136E+07  -1.766620778263012E+01  -9.150181715181386E+00  -6.428392240412329E+00
9.3923999999731779e+06  1.586750854799825E+07  9.737831343969193E+07  3.000427441419717E+07  -1.765249846952558E+01  -9.168158171531825E+00  -6.432778132022369E+00
9.3960000000000000e+06  1.580398426986741E+07  9.734527573758383E+07  2.998110853529552E+07  -1.763876276149577E+01  -9.186118001616784E+00  -6.437152702297356E+00
9.3996000000268221e+06  1.574050948776096E+07  9.731217341009416E+07  2.995792692835101E+07  -1.762500068233476E+01  -9.204061154204108E+00  -6.441515930960813E+00
9.4031999999731779e+06  1.567708429657127E+07  9.727900651734897E+07  2.993472963422729E+07  -1.761121225602837E+01  -9.221987578001922E+00  -6.445867797739297E+00
9.4068000000000000e+06  1.561370879110493E+07  9.724577511966696E+07  2.991151669386499E+07  -1.759739750675946E+01  -9.239897221658754E+00  -6.450208282362960E+00
9.4104000000268221e+06  1.555038306608102E+07  9.721247927755177E+07  2.988828814827763E+07  -1.758355645890688E+01  -9.257790033765435E+00  -6.454537364566201E+00
9.4139999999731779e+06  1.548710721612969E+07  9.717911905168435E+07  2.986504403854777E+07  -1.756968913704436E+01  -9.275665962856937E+00  -6.458855024088294E+00
9.4176000000000000e+06  1.542388133579323E+07  9.714569450293890E+07  2.984178440583483E+07  -1.755579556594578E+01  -9.293524957412593E+00  -6.463161240673978E+00
9.4212000000268221e+06  1.536070551952411E+07  9.711220569237518E+07  2.981850929137118E+07  -1.754187577058513E+01  -9.311366965856944E+00  -6.467455994073788E+00
9.4247999999731779e+06  1.529757986168399E+07  9.707865268123087E+07  2.979521873645806E+07  -1.752792977613250E+01  -9.329191936564655E+00  -6.471739264045627E+00
9.4284000000000000e+06  1.523450445654425E+07  9.704503553093746E+07  2.977191278247357E+07  -1.751395760796171E+01  -9.346999817857846E+00  -6.476011030354481E+00
9.4320000000268221e+06  1.517147939828455E+07  9.701135430311254E+07  2.974859147086861E+07  -1.749995929164843E+01  -9.364790558009027E+00  -6.480271272773367E+00
9.4355999999731779e+06  1.510850478099132E+07  9.697760905955216E+07  2.972525484316297E+07  -1.748593485296902E+01  -9.382564105242938E+00  -6.484519971083953E+00
9.4392000000000000e+06  1.504558069865865E+07  9.694379986224674E+07  2.970190294095311E+07  -1.747188431790563E+01  -9.400320407736928E+00  -6.488757105077246E+00
9.4428000000268221e+06  1.498270724518672E+07  9.690992677337326E+07  2.967853580590827E+07  -1.745780771264493E+01  -9.418059413622917E+00  -6.492982654554174E+00
9.4463999999731779e+06  1.491988451438028E+07  9.687598985528773E+07  2.965515347976641E+07  -1.744370506357689E+01  -9.435781070989293E+00  -6.497196599326305E+00
9.4500000000000000e+06  1.485711259994948E+07  9.684198917054097E+07  2.963175600434210E+07  -1.742957639729983E+01  -9.453485327881342E+00  -6.501398919216456E+00
9.4536000000268221e+06  1.479439159550829E+07  9.680792478187084E+07  2.960834342152255E+07  -1.741542174061914E+01  -9.471172132303199E+00  -6.505589594059355E+00
9.4571999999731779e+06  1.473172159457317E+07  9.677379675219464E+07  2.958491577326355E+07  -1.740124112054589E+01  -9.488841432219811E+00  -6.509768603702323E+00
9.4608000000000000e+06  1.466910269056360E+07  9.673960514462501E+07  2.956147310159742E+07  -1.738703456430186E+01  -9.506493175557402E+00  -6.513935928005884E+00
9.4644000000268221e+06  1.460653497680075E+07  9.670535002246195E+07  2.953801544862891E+07  -1.737280209931824E+01  -9.524127310205401E+00  -6.518091546844483E+00
9.4679999999731779e+06  1.454401854650593E+07  9.667103144918539E+07  2.951454285653127E+07  -1.735854375323410E+01  -9.541743784018536E+00  -6.522235440107110E+00
9.4716000000000000e+06  1.448155349280123E+07  9.663664948847088E+07  2.949105536755407E+07  -1.734425955390147E+01  -9.559342544817227E+00  -6.526367587697964E+00
9.4752000000268221e+06  1.441913990870816E+07  9.660220420418185E+07  2.946755302401919E+07  -1.732994952938384E+01  -9.576923540389611E+00  -6.530487969537150E+00
9.4787999999731779e+06  1.435677788714606E+07  9.656769566036189E+07  2.944403586831681E+07  -1.731561370795464E+01  -9.594486718493588E+00  -6.534596565561303E+00
9.4824000000000000e+06  1.429446752093285E+07  9.653312392125064E+07  2.942050394291330E+07  -1.730125211810223E+01  -9.612032026857289E+00  -6.538693355724309E+00
9.4860000000268221e+06  1.423220890278347E+07  9.649848905127585E+07  2.939695729034711E+07  -1.728686478852835E+01  -9.629559413181155E+00  -6.542778319997918E+00
9.4895999999731779e+06  1.417000212530848E+07  9.646379111504583E+07  2.937339595322483E+07  -1.727245174814655E+01  -9.647068825139936E+00  -6.546851438372434E+00
9.4932000000000000e+06  1.410784728101467E+07  9.642903017736515E+07  2.934981997422902E+07  -1.725801302608706E+01  -9.664560210383243E+00  -6.550912690857414E+00
9.4968000000268221e+06  1.404574446230352E+07  9.639420630322686E+07  2.932622939611414E+07  -1.724354865169518E+01  -9.682033516537583E+00  -6.554962057482303E+00
9.5003999999731779e+06  1.398369376146989E+07  9.635931955780472E+07  2.930262426170256E+07  -1.722905865452969E+01  -9.699488691208444E+00  -6.558999518297114E+00
9.5040000000000000e+06  1.392169527070239E+07  9.632437000646907E+07  2.927900461389240E+07  -1.721454306436761E+01  -9.716925681980793E+00  -6.563025053373108E+00
9.5076000000268221e+06  1.385974908208212E+07  9.628935771477893E+07  2.925537049565348E+07  -1.720000191120254E+01  -9.734344436421221E+00  -6.567038642803455E+00
9.5111999999731779e+06  1.379785528758118E+07  9.625428274847427E+07  2.923172195002329E+07  -1.718543522524299E+01  -9.751744902079931E+00  -6.571040266703912E+00
9.5148000000000000e+06  1.373601397906308E+07  9.621914517349172E+07  2.920805902011481E+07  -1.717084303691705E+01  -9.769127026491365E+00  -6.575029905213492E+00
9.5184000000268221e+06  1.367422524828151E+07  9.618394505595687E+07  2.918438174911247E+07  -1.715622537687072E+01  -9.786490757176281E+00  -6.579007538495141E+00
9.5219999999731779e+06  1.361248918687871E+07  9.614868246217641E+07  2.916069018026813E+07  -1.714158227596608E+01  -9.803836041643777E+00  -6.582973146736380E+00
9.5256000000000000e+06  1.355080588638616E+07  9.611335745865376E+07  2.913698435690888E+07  -1.712691376528602E+01  -9.821162827391941E+00  -6.586926710150012E+00
9.5292000000268221e+06  1.348917543822289E+07  9.607797011208153E+07  2.911326432243300E+07  -1.711221987613235E+01  -9.838471061909907E+00  -6.590868208974785E+00
9.5327999999731779e+06  1.342759793369442E+07  9.604252048933338E+07  2.908953012030590E+07  -1.709750064002402E+01  -9.855760692679937E+00  -6.594797623476012E+00
9.5364000000000000e+06  1.336607346399288E+07  9.600700865748000E+07  2.906578179406793E+07  -1.708275608870169E+01  -9.873031667178051E+00  -6.598714933946306E+00
9.5400000000268221e+06  1.330460212019573E+07  9.597143468378113E+07  2.904201938733038E+07  -1.706798625412583E+01  -9.890283932876077E+00  -6.602620120706195E+00
END Ephemeris
